start=new Date('2022-10-12T00:00:00.000Z').valueOf();
sats=[{"EPOCH":"2022-10-11T19:44:43.844352","RCS_SIZE":"LARGE","OBJECT_NAME":"STARLINK-2322","RA_OF_ASC_NODE":"80.0307","BSTAR":"-0.00004541100000","PERIOD":"95.593","COUNTRY_CODE":"US","EPHEMERIS_TYPE":"0","TLE_LINE2":"2 47791  53.0543  80.0307 0001291  87.2128 272.9009 15.06386283 88624","INCLINATION":"53.0543","ARG_OF_PERICENTER":"87.2128","ELEMENT_SET_NO":"999","NORAD_CAT_ID":"47791","REF_FRAME":"TEME","CENTER_NAME":"EARTH","CLASSIFICATION_TYPE":"U","MEAN_ANOMALY":"272.9009","OBJECT_TYPE":"PAYLOAD","FILE":"3603862","LAUNCH_DATE":"2021-03-11","PERIAPSIS":"546.362","APOAPSIS":"548.150","REV_AT_EPOCH":"8862","MEAN_MOTION":"15.06386283","OBJECT_ID":"2021-018E","ECCENTRICITY":"0.00012910","SITE":"AFETR","MEAN_MOTION_DDOT":"0.0000000000000","MEAN_ELEMENT_THEORY":"SGP4","SEMIMAJOR_AXIS":"6925.391","TLE_LINE1":"1 47791U 21018E   22284.82272968 -.00000957  00000-0 -45411-4 0  9994","GP_ID":"214788546","DECAY_DATE":null,"MEAN_MOTION_DOT":"-0.00000957","TIME_SYSTEM":"UTC"},{"MEAN_MOTION_DOT":"-0.00001087","TIME_SYSTEM":"UTC","GP_ID":"214788290","TLE_LINE1":"1 47792U 21018F   22284.50389727 -.00001087  00000-0 -54122-4 0  9996","DECAY_DATE":null,"MEAN_ELEMENT_THEORY":"SGP4","SEMIMAJOR_AXIS":"6925.406","MEAN_MOTION_DDOT":"0.0000000000000","MEAN_MOTION":"15.06381179","REV_AT_EPOCH":"8885","OBJECT_ID":"2021-018F","SITE":"AFETR","ECCENTRICITY":"0.00015870","FILE":"3603862","LAUNCH_DATE":"2021-03-11","APOAPSIS":"548.370","PERIAPSIS":"546.172","OBJECT_TYPE":"PAYLOAD","MEAN_ANOMALY":"296.4044","CLASSIFICATION_TYPE":"U","REF_FRAME":"TEME","CENTER_NAME":"EARTH","ARG_OF_PERICENTER":"63.7108","NORAD_CAT_ID":"47792","ELEMENT_SET_NO":"999","COUNTRY_CODE":"US","INCLINATION":"53.0559","TLE_LINE2":"2 47792  53.0559  61.4856 0001587  63.7108 296.4044 15.06381179 88853","EPHEMERIS_TYPE":"0","RA_OF_ASC_NODE":"61.4856","OBJECT_NAME":"STARLINK-2334","PERIOD":"95.593","BSTAR":"-0.00005412200000","EPOCH":"2022-10-11T12:05:36.724128","RCS_SIZE":"LARGE"},{"LAUNCH_DATE":"2021-03-11","APOAPSIS":"548.076","PERIAPSIS":"546.474","FILE":"3603863","SITE":"AFETR","ECCENTRICITY":"0.00011570","MEAN_MOTION":"15.06379880","OBJECT_ID":"2021-018G","REV_AT_EPOCH":"8889","MEAN_MOTION_DDOT":"0.0000000000000","SEMIMAJOR_AXIS":"6925.410","MEAN_ELEMENT_THEORY":"SGP4","DECAY_DATE":null,"TLE_LINE1":"1 47793U 21018G   22284.78402302 -.00000207  00000-0  49948-5 0  9995","GP_ID":"214788293","TIME_SYSTEM":"UTC","MEAN_MOTION_DOT":"-0.00000207","RCS_SIZE":"LARGE","EPOCH":"2022-10-11T18:48:59.588928","PERIOD":"95.593","BSTAR":"0.00000499480000","RA_OF_ASC_NODE":"60.2277","OBJECT_NAME":"STARLINK-2338","INCLINATION":"53.0558","EPHEMERIS_TYPE":"0","TLE_LINE2":"2 47793  53.0558  60.2277 0001157  80.2443 279.8677 15.06379880 88893","COUNTRY_CODE":"US","NORAD_CAT_ID":"47793","ELEMENT_SET_NO":"999","ARG_OF_PERICENTER":"80.2443","CLASSIFICATION_TYPE":"U","CENTER_NAME":"EARTH","REF_FRAME":"TEME","MEAN_ANOMALY":"279.8677","OBJECT_TYPE":"PAYLOAD"},{"NORAD_CAT_ID":"47794","ELEMENT_SET_NO":"999","ARG_OF_PERICENTER":"73.0493","CLASSIFICATION_TYPE":"U","CENTER_NAME":"EARTH","REF_FRAME":"TEME","MEAN_ANOMALY":"287.0646","OBJECT_TYPE":"PAYLOAD","RCS_SIZE":"LARGE","EPOCH":"2022-10-11T18:54:17.388864","PERIOD":"95.593","BSTAR":"0.00028041000000","RA_OF_ASC_NODE":"60.2111","OBJECT_NAME":"STARLINK-2341","INCLINATION":"53.0548","EPHEMERIS_TYPE":"0","TLE_LINE2":"2 47794  53.0548  60.2111 0001370  73.0493 287.0646 15.06391895 89249","COUNTRY_CODE":"US","MEAN_MOTION_DDOT":"0.0000000000000","SEMIMAJOR_AXIS":"6925.373","MEAN_ELEMENT_THEORY":"SGP4","DECAY_DATE":null,"TLE_LINE1":"1 47794U 21018H   22284.78770126  .00003897  00000-0  28041-3 0  9994","GP_ID":"214821491","MEAN_MOTION_DOT":"0.00003897","TIME_SYSTEM":"UTC","PERIAPSIS":"546.290","LAUNCH_DATE":"2021-03-11","APOAPSIS":"548.187","FILE":"3604484","SITE":"AFETR","ECCENTRICITY":"0.00013700","REV_AT_EPOCH":"8924","MEAN_MOTION":"15.06391895","OBJECT_ID":"2021-018H"},{"OBJECT_TYPE":"PAYLOAD","MEAN_ANOMALY":"270.1607","REF_FRAME":"TEME","CENTER_NAME":"EARTH","CLASSIFICATION_TYPE":"U","ARG_OF_PERICENTER":"89.9529","ELEMENT_SET_NO":"999","NORAD_CAT_ID":"47795","COUNTRY_CODE":"US","EPHEMERIS_TYPE":"0","TLE_LINE2":"2 47795  53.0548  60.2610 0001287  89.9529 270.1607 15.06397142 88898","INCLINATION":"53.0548","OBJECT_NAME":"STARLINK-2347","RA_OF_ASC_NODE":"60.2610","BSTAR":"0.00015004000000","PERIOD":"95.592","EPOCH":"2022-10-11T18:38:22.095168","RCS_SIZE":"LARGE","TIME_SYSTEM":"UTC","MEAN_MOTION_DOT":"0.00001954","GP_ID":"214788575","TLE_LINE1":"1 47795U 21018J   22284.77664462  .00001954  00000-0  15004-3 0  9996","DECAY_DATE":null,"MEAN_ELEMENT_THEORY":"SGP4","SEMIMAJOR_AXIS":"6925.357","MEAN_MOTION_DDOT":"0.0000000000000","OBJECT_ID":"2021-018J","MEAN_MOTION":"15.06397142","REV_AT_EPOCH":"8889","ECCENTRICITY":"0.00012870","SITE":"AFETR","FILE":"3603864","APOAPSIS":"548.114","LAUNCH_DATE":"2021-03-11","PERIAPSIS":"546.331"},{"TIME_SYSTEM":"UTC","MEAN_MOTION_DOT":"-0.00002705","GP_ID":"214822493","TLE_LINE1":"1 47796U 21018K   22284.79139750 -.00002705  00000-0 -16280-3 0  9990","DECAY_DATE":null,"MEAN_ELEMENT_THEORY":"SGP4","SEMIMAJOR_AXIS":"6925.389","MEAN_MOTION_DDOT":"0.0000000000000","MEAN_MOTION":"15.06386824","OBJECT_ID":"2021-018K","REV_AT_EPOCH":"8924","SITE":"AFETR","ECCENTRICITY":"0.00014280","FILE":"3604484","LAUNCH_DATE":"2021-03-11","APOAPSIS":"548.243","PERIAPSIS":"546.265","OBJECT_TYPE":"PAYLOAD","MEAN_ANOMALY":"282.3546","CLASSIFICATION_TYPE":"U","REF_FRAME":"TEME","CENTER_NAME":"EARTH","ARG_OF_PERICENTER":"77.7603","NORAD_CAT_ID":"47796","ELEMENT_SET_NO":"999","COUNTRY_CODE":"US","INCLINATION":"53.0563","TLE_LINE2":"2 47796  53.0563  60.1886 0001428  77.7603 282.3546 15.06386824 89247","EPHEMERIS_TYPE":"0","RA_OF_ASC_NODE":"60.1886","OBJECT_NAME":"STARLINK-2373","PERIOD":"95.593","BSTAR":"-0.00016280000000","EPOCH":"2022-10-11T18:59:36.744000","RCS_SIZE":"LARGE"},{"MEAN_ELEMENT_THEORY":"SGP4","SEMIMAJOR_AXIS":"6925.397","MEAN_MOTION_DDOT":"0.0000000000000","MEAN_MOTION_DOT":"-0.00000825","TIME_SYSTEM":"UTC","GP_ID":"214788335","TLE_LINE1":"1 47797U 21018L   22284.82780068 -.00000825  00000-0 -36513-4 0  9992","DECAY_DATE":null,"REV_AT_EPOCH":"8855","MEAN_MOTION":"15.06384038","OBJECT_ID":"2021-018L","SITE":"AFETR","ECCENTRICITY":"0.00017240","FILE":"3603865","PERIAPSIS":"546.069","LAUNCH_DATE":"2021-03-11","APOAPSIS":"548.456","CLASSIFICATION_TYPE":"U","CENTER_NAME":"EARTH","REF_FRAME":"TEME","ARG_OF_PERICENTER":"107.1163","NORAD_CAT_ID":"47797","ELEMENT_SET_NO":"999","OBJECT_TYPE":"PAYLOAD","MEAN_ANOMALY":"253.0015","EPOCH":"2022-10-11T19:52:01.978752","RCS_SIZE":"LARGE","COUNTRY_CODE":"US","INCLINATION":"53.0578","TLE_LINE2":"2 47797  53.0578  85.0366 0001724 107.1163 253.0015 15.06384038 88555","EPHEMERIS_TYPE":"0","RA_OF_ASC_NODE":"85.0366","OBJECT_NAME":"STARLINK-2377","PERIOD":"95.593","BSTAR":"-0.00003651300000"},{"TLE_LINE2":"2 47798  53.0552  60.1435 0001367  74.8849 285.2291 15.06393813 88894","EPHEMERIS_TYPE":"0","INCLINATION":"53.0552","COUNTRY_CODE":"US","BSTAR":"-0.00016958000000","PERIOD":"95.593","OBJECT_NAME":"STARLINK-2379","RA_OF_ASC_NODE":"60.1435","RCS_SIZE":"LARGE","EPOCH":"2022-10-11T19:15:30.441024","OBJECT_TYPE":"PAYLOAD","MEAN_ANOMALY":"285.2291","CENTER_NAME":"EARTH","REF_FRAME":"TEME","CLASSIFICATION_TYPE":"U","ELEMENT_SET_NO":"999","NORAD_CAT_ID":"47798","ARG_OF_PERICENTER":"74.8849","ECCENTRICITY":"0.00013670","SITE":"AFETR","MEAN_MOTION":"15.06393813","REV_AT_EPOCH":"8889","OBJECT_ID":"2021-018M","APOAPSIS":"548.179","LAUNCH_DATE":"2021-03-11","PERIAPSIS":"546.286","FILE":"3603866","MEAN_MOTION_DOT":"-0.00002806","TIME_SYSTEM":"UTC","DECAY_DATE":null,"TLE_LINE1":"1 47798U 21018M   22284.80243566 -.00002806  00000-0 -16958-3 0  9999","GP_ID":"214788603","SEMIMAJOR_AXIS":"6925.368","MEAN_ELEMENT_THEORY":"SGP4","MEAN_MOTION_DDOT":"0.0000000000000"},{"SEMIMAJOR_AXIS":"6925.378","MEAN_ELEMENT_THEORY":"SGP4","MEAN_MOTION_DDOT":"0.0000000000000","MEAN_MOTION_DOT":"-0.00001246","TIME_SYSTEM":"UTC","DECAY_DATE":null,"GP_ID":"214822243","TLE_LINE1":"1 47799U 21018N   22284.79876246 -.00001246  00000-0 -64768-4 0  9995","SITE":"AFETR","ECCENTRICITY":"0.00013590","REV_AT_EPOCH":"8923","OBJECT_ID":"2021-018N","MEAN_MOTION":"15.06390556","LAUNCH_DATE":"2021-03-11","PERIAPSIS":"546.301","APOAPSIS":"548.184","FILE":"3604484","CLASSIFICATION_TYPE":"U","CENTER_NAME":"EARTH","REF_FRAME":"TEME","NORAD_CAT_ID":"47799","ELEMENT_SET_NO":"999","ARG_OF_PERICENTER":"74.7736","OBJECT_TYPE":"PAYLOAD","MEAN_ANOMALY":"285.3403","RCS_SIZE":"LARGE","EPOCH":"2022-10-11T19:10:13.076544","INCLINATION":"53.0548","EPHEMERIS_TYPE":"0","TLE_LINE2":"2 47799  53.0548  60.1423 0001359  74.7736 285.3403 15.06390556 89238","COUNTRY_CODE":"US","PERIOD":"95.593","BSTAR":"-0.00006476800000","RA_OF_ASC_NODE":"60.1423","OBJECT_NAME":"STARLINK-2380"},{"MEAN_MOTION":"15.06377029","OBJECT_ID":"2021-018P","REV_AT_EPOCH":"8919","SITE":"AFETR","ECCENTRICITY":"0.00026580","FILE":"3603543","PERIAPSIS":"545.443","LAUNCH_DATE":"2021-03-11","APOAPSIS":"549.125","MEAN_ELEMENT_THEORY":"SGP4","SEMIMAJOR_AXIS":"6925.419","MEAN_MOTION_DDOT":"0.0000000000000","TIME_SYSTEM":"UTC","MEAN_MOTION_DOT":"-0.00004558","TLE_LINE1":"1 47800U 21018P   22284.48914429 -.00004558  00000-0 -28739-3 0  9996","GP_ID":"214780519","DECAY_DATE":null,"EPOCH":"2022-10-11T11:44:22.066656","RCS_SIZE":"LARGE","COUNTRY_CODE":"US","INCLINATION":"53.0543","EPHEMERIS_TYPE":"0","TLE_LINE2":"2 47800  53.0543  61.5425 0002658  67.7709 292.3561 15.06377029 89196","RA_OF_ASC_NODE":"61.5425","OBJECT_NAME":"STARLINK-2381","PERIOD":"95.594","BSTAR":"-0.00028739000000","CLASSIFICATION_TYPE":"U","REF_FRAME":"TEME","CENTER_NAME":"EARTH","ARG_OF_PERICENTER":"67.7709","NORAD_CAT_ID":"47800","ELEMENT_SET_NO":"999","OBJECT_TYPE":"PAYLOAD","MEAN_ANOMALY":"292.3561"}];
